{"spkid": "50691735", "covariance": {"elements": [{"name": "e", "sigma": 2.75478587933459e-08, "value": ".1083798756750517", "title": "eccentricity", "units": null, "label": "e"}, {"title": "perihelion distance", "value": "1.041296336281055", "units": "au", "sigma": 3.50366762377597e-08, "name": "q", "label": "q"}, {"name": "tp", "sigma": 3.48160316706559e-05, "value": "2456948.151859029350", "title": "time of perihelion passage", "units": "TDB", "label": "tp"}, {"name": "om", "sigma": 2.94836064620224e-05, "units": "deg", "title": "longitude of the ascending node", "value": "7.63621924394129", "label": "node"}, {"label": "peri", "value": "19.27462897963625", "title": "argument of perihelion", "units": "deg", "name": "w", "sigma": 3.67200990937667e-05}, {"label": "i", "name": "i", "sigma": 1.96102746005762e-06, "title": "inclination", "value": "2.29444546128189", "units": "deg"}], "data": [["7.588845240981225E-16", "-9.575303105635994E-16", "-5.472136518121285E-13", "-2.442293520198101E-13", "-3.163949115724415E-13", "-1.597718340332034E-14"], ["-9.575303105635994E-16", "1.227568681789595E-15", "7.798129805940017E-13", "3.285770300016787E-13", "4.656335010711639E-13", "1.97676350903687E-14"], ["-5.472136518121285E-13", "7.798129805940017E-13", "1.212156061292114E-9", "3.470331474826842E-10", "8.43643673424552E-10", "4.785587127424452E-12"], ["-2.442293520198101E-13", "3.285770300016787E-13", "3.470331474826842E-10", "8.692830500074092E-10", "-5.227226022958587E-10", "6.78801394778754E-12"], ["-3.163949115724415E-13", "4.656335010711639E-13", "8.43643673424552E-10", "-5.227226022958587E-10", "1.348365677456047E-9", "-1.231329584365507E-12"], ["-1.597718340332034E-14", "1.97676350903687E-14", "4.785587127424452E-12", "6.78801394778754E-12", "-1.231329584365507E-12", "3.845628699100053E-12"]], "labels": ["e", "q", "tp", "node", "peri", "i"], "epoch": "2457176.5"}, "elements": [{"label": "e", "name": "e", "sigma": "2.7727E-8", "units": null, "title": "eccentricity", "value": ".1086421247062852"}, {"label": "a", "value": "1.168283773871959", "title": "semi-major axis", "units": "au", "name": "a", "sigma": "5.016E-9"}, {"value": "1.041358942418632", "title": "perihelion distance", "units": "au", "sigma": "3.4948E-8", "name": "q", "label": "q"}, {"label": "i", "title": "inclination; angle with respect to x-y ecliptic plane", "value": "2.29303788709582", "units": "deg", "name": "i", "sigma": "1.9607E-6"}, {"title": "longitude of the ascending node", "value": "7.555204739745037", "units": "deg", "name": "om", "sigma": "2.9514E-5", "label": "node"}, {"label": "peri", "name": "w", "sigma": "3.6705E-5", "title": "argument of perihelion", "value": "19.3031179513916", "units": "deg"}, {"label": "M", "name": "ma", "sigma": "4.7518E-5", "units": "deg", "title": "mean anomaly", "value": "79.99058504967354"}, {"label": "tp", "name": "tp", "sigma": "6.0264E-5", "title": "time of perihelion passage", "value": "2461098.015705296845", "units": "TDB"}, {"sigma": "2.9705E-6", "name": "per", "value": "461.2336073079675", "title": "sidereal orbital period", "units": "d", "label": "period"}, {"label": "n", "name": "n", "sigma": "5.0267E-9", "value": ".7805155441754844", "title": "mean motion", "units": "deg/d"}, {"sigma": "5.561E-9", "name": "ad", "units": "au", "title": "aphelion distance", "value": "1.295208605325286", "label": "Q"}], "epoch": "2461200.5"}